NORAD_CAT_ID,OBJECT_NAME,OBJECT_TYPE,EPOCH,MEAN_MOTION,ECCENTRICITY,INCLINATION,RA_OF_ASC_NODE,ARG_OF_PERICENTER,MEAN_ANOMALY,BSTAR,MEAN_MOTION_DOT,MEAN_MOTION_DDOT,TLE_LINE0,TLE_LINE1,TLE_LINE2,SEMIMAJOR_AXIS,PERIOD,APOGEE,PERIGEE,DECAYED
55671.0,STARLINK-5460,PAYLOAD,2024-08-08 07:27:07,14.98331398,0.000292,69.9999,182.9567,265.4243,94.6582,0.00031981,3.725e-05,0.0,0 STARLINK-5460,1 55671U 23021AV  24221.31050625  .00003725  00000-0  31981-3 0  9997,2 55671  69.9999 182.9567 0002920 265.4243  94.6582 14.98331398 82647,6950.189,96.107,574.083,570.024,0.0
55671.0,STARLINK-5460,PAYLOAD,2024-08-08 21:52:20,14.98346212,0.0002391,70.0015,181.4407,268.4074,91.6811,-6.3174e-05,-8.47e-06,0.0,0 STARLINK-5460,1 55671U 23021AV  24221.91134539 -.00000847  00000-0 -63174-4 0  9994,2 55671  70.0015 181.4407 0002391 268.4074  91.6811 14.98346212 82433,6950.143,96.106,573.67,570.346,0.0
55671.0,STARLINK-5460,PAYLOAD,2024-08-09 05:53:00,14.98333243,0.0002546,70.0009,180.6012,260.076,100.0111,0.0001281,1.436e-05,0.0,0 STARLINK-5460,1 55671U 23021AV  24222.24514751  .00001436  00000-0  12810-3 0  9992,2 55671  70.0009 180.6012 0002546 260.0760 100.0111 14.98333243 82484,6950.183,96.107,573.817,570.278,0.0
55671.0,STARLINK-5460,PAYLOAD,2024-08-09 21:54:21,14.98334658,0.0002134,70.0024,178.9157,262.1061,97.9856,-4.6548e-06,-1.48e-06,0.0,0 STARLINK-5460,1 55671U 23021AV  24222.91274866 -.00000148  00000-0 -46548-5 0  9994,2 55671  70.0024 178.9157 0002134 262.1061  97.9856 14.98334658 82886,6950.178,96.107,573.527,570.56,0.0
55671.0,STARLINK-5460,PAYLOAD,2024-08-10 04:18:54,14.98328394,0.0002381,70.0015,178.2436,262.8265,97.2623,-7.7322e-05,-1.015e-05,0.0,0 STARLINK-5460,1 55671U 23021AV  24223.17979296 -.00001015  00000-0 -77322-4 0  9999,2 55671  70.0015 178.2436 0002381 262.8265  97.2623 14.98328394 82623,6950.198,96.107,573.718,570.408,0.0
55671.0,STARLINK-5460,PAYLOAD,2024-08-10 07:31:10,14.98331022,0.0002381,70.0017,177.9069,264.2062,95.8825,-6.0304e-05,-8.12e-06,0.0,0 STARLINK-5460,1 55671U 23021AV  24223.31331085 -.00000812  00000-0 -60304-4 0  9999,2 55671  70.0017 177.9069 0002381 264.2062  95.8825 14.98331022 82949,6950.19,96.107,573.71,570.4,0.0
55671.0,STARLINK-5460,PAYLOAD,2024-08-10 20:20:14,14.98332814,0.000268,70.0007,176.5597,265.9496,94.1357,7.6269e-05,8.17e-06,0.0,0 STARLINK-5460,1 55671U 23021AV  24223.84738451  .00000817  00000-0  76269-4 0  9995,2 55671  70.0007 176.5597 0002680 265.9496  94.1357 14.98332814 82728,6950.184,96.107,573.912,570.187,0.0
55671.0,STARLINK-5460,PAYLOAD,2024-08-10 21:56:22,14.9833451,0.0002812,70.0005,176.3932,262.2541,97.8299,4.7907e-05,4.79e-06,0.0,0 STARLINK-5460,1 55671U 23021AV  24223.91414381  .00000479  00000-0  47907-4 0  9997,2 55671  70.0005 176.3932 0002812 262.2541  97.8299 14.98334510 83030,6950.179,96.107,573.998,570.09,0.0
55671.0,STARLINK-5460,PAYLOAD,2024-08-11 05:57:01,14.98341038,0.0002538,70.001,175.5503,259.4026,100.6847,0.00016438,1.869e-05,0.0,0 STARLINK-5460,1 55671U 23021AV  24224.24793645  .00001869  00000-0  16438-3 0  9995,2 55671  70.0010 175.5503 0002538 259.4026 100.6847 14.98341038 82788,6950.159,96.106,573.788,570.26,0.0
55671.0,STARLINK-5460,PAYLOAD,2024-08-11 20:22:14,14.98330897,0.000255,70.0011,174.0365,279.1805,80.9065,0.00019612,2.248e-05,0.0,0 STARLINK-5460,1 55671U 23021AV  24224.84878237  .00002248  00000-0  19612-3 0  9991,2 55671  70.0011 174.0365 0002550 279.1805  80.9065 14.98330897 82870,6950.19,96.107,573.827,570.283,0.0
55671.0,STARLINK-5460,PAYLOAD,2024-08-11 21:58:23,14.98343171,0.0002602,70.0011,173.8705,274.1434,85.9427,-0.00019565,-2.427e-05,0.0,0 STARLINK-5460,1 55671U 23021AV  24224.91554405 -.00002427  00000-0 -19565-3 0  9995,2 55671  70.0011 173.8705 0002602 274.1434  85.9427 14.98343171 83187,6950.152,96.106,573.826,570.209,0.0
55671.0,STARLINK-5460,PAYLOAD,2024-08-12 07:35:10,14.98340601,0.0002563,70.0011,172.8569,261.8082,98.2787,0.00022675,2.614e-05,0.0,0 STARLINK-5460,1 55671U 23021AV  24225.31609293  .00002614  00000-0  22675-3 0  9998,2 55671  70.0011 172.8569 0002563 261.8082  98.2787 14.98340601 82946,6950.16,96.106,573.806,570.244,0.0
55671.0,STARLINK-5460,PAYLOAD,2024-08-12 13:59:42,14.98344572,0.0002748,70.0008,172.1842,265.6097,94.4748,0.00016011,1.819e-05,0.0,0 STARLINK-5460,1 55671U 23021AV  24225.58313019  .00001819  00000-0  16011-3 0  9998,2 55671  70.0008 172.1842 0002748 265.6097  94.4748 14.98344572 83286,6950.148,96.106,573.923,570.103,0.0
55671.0,STARLINK-5460,PAYLOAD,2024-08-12 22:00:22,14.98346132,0.0002082,70.0005,171.3416,265.8236,94.2685,9.2422e-05,1.01e-05,0.0,0 STARLINK-5460,1 55671U 23021AV  24225.91693154  .00001010  00000-0  92422-4 0  9990,2 55671  70.0005 171.3416 0002082 265.8236  94.2685 14.98346132 83337,6950.143,96.106,573.455,570.561,0.0
55671.0,STARLINK-5460,PAYLOAD,2024-08-13 06:01:03,14.98341087,0.0002459,70.0007,170.5008,261.5381,98.55,5.5628e-05,5.71e-06,0.0,0 STARLINK-5460,1 55671U 23021AV  24226.25073094  .00000571  00000-0  55628-4 0  9991,2 55671  70.0007 170.5008 0002459 261.5381  98.5500 14.98341087 83088,6950.159,96.106,573.733,570.315,0.0
55671.0,STARLINK-5460,PAYLOAD,2024-08-13 14:01:45,14.98317221,0.0002161,70.0006,169.6564,279.8038,80.2877,-0.00020418,-2.527e-05,0.0,0 STARLINK-5460,1 55671U 23021AV  24226.58455460 -.00002527  00000-0 -20418-3 0  9991,2 55671  70.0006 169.6564 0002161 279.8038  80.2877 14.98317221 83138,6950.232,96.108,573.599,570.595,0.0
55671.0,STARLINK-5460,PAYLOAD,2024-08-13 22:02:28,14.9827833,0.0002605,70.001,168.8209,279.2498,80.8367,-0.00043915,-5.322e-05,0.0,0 STARLINK-5460,1 55671U 23021AV  24226.91838921 -.00005322  00000-0 -43915-3 0  9998,2 55671  70.0010 168.8209 0002605 279.2498  80.8367 14.98278330 83482,6950.353,96.11,574.028,570.407,0.0
55671.0,STARLINK-5460,PAYLOAD,2024-08-14 04:27:01,14.98283587,0.0002389,70.0007,168.1445,272.0245,88.064,-0.00041426,-5.026e-05,0.0,0 STARLINK-5460,1 55671U 23021AV  24227.18543238 -.00005026  00000-0 -41426-3 0  9998,2 55671  70.0007 168.1445 0002389 272.0245  88.0640 14.98283587 83229,6950.336,96.11,573.862,570.541,0.0
55671.0,STARLINK-5460,PAYLOAD,2024-08-14 14:03:47,14.98325148,0.0002357,70.0026,167.1351,273.5074,86.5816,-5.4184e-05,-7.39e-06,0.0,0 STARLINK-5460,1 55671U 23021AV  24227.58596363 -.00000739  00000-0 -54184-4 0  9991,2 55671  70.0026 167.1351 0002357 273.5074  86.5816 14.98325148 83583,6950.208,96.107,573.711,570.435,0.0
55671.0,STARLINK-5460,PAYLOAD,2024-08-14 22:04:27,14.98327901,0.0002812,70.0012,166.2938,274.5512,85.5326,0.00012526,1.402e-05,0.0,0 STARLINK-5460,1 55671U 23021AV  24227.91975799  .00001402  00000-0  12526-3 0  9991,2 55671  70.0012 166.2938 0002812 274.5512  85.5326 14.98327901 83633,6950.199,96.107,574.019,570.11,0.0
55671.0,STARLINK-5460,PAYLOAD,2024-08-15 04:28:58,14.98343815,0.0002472,70.0009,165.6196,275.7013,84.3864,0.00022733,2.621e-05,0.0,0 STARLINK-5460,1 55671U 23021AV  24228.18678674  .00002621  00000-0  22733-3 0  9998,2 55671  70.0009 165.6196 0002472 275.7013  84.3864 14.98343815 83376,6950.15,96.106,573.733,570.297,0.0
55671.0,STARLINK-5460,PAYLOAD,2024-08-15 06:05:06,14.98345569,0.000247,70.001,165.4516,275.3017,84.786,0.00025673,2.973e-05,0.0,0 STARLINK-5460,1 55671U 23021AV  24228.25354508  .00002973  00000-0  25673-3 0  9999,2 55671  70.0010 165.4516 0002470 275.3017  84.7860 14.98345569 83682,6950.145,96.106,573.726,570.293,0.0
55671.0,STARLINK-5460,PAYLOAD,2024-08-15 22:06:27,14.98320409,0.0002515,70.0009,163.7689,277.3583,82.729,0.00069265,8.179e-05,0.0,0 STARLINK-5460,1 55671U 23021AV  24228.92115391  .00008179  00000-0  69265-3 0  9997,2 55671  70.0009 163.7689 0002515 277.3583  82.7290 14.98320409 83784,6950.223,96.108,573.836,570.34,0.0
55671.0,STARLINK-5460,PAYLOAD,2024-08-16 04:30:59,14.98326369,0.000246,70.001,163.0978,262.8079,97.2801,0.00066904,7.898e-05,0.0,0 STARLINK-5460,1 55671U 23021AV  24229.18819162  .00007898  00000-0  66904-3 0  9997,2 55671  70.0010 163.0978 0002460 262.8079  97.2801 14.98326369 83520,6950.204,96.107,573.779,570.359,0.0
55671.0,STARLINK-5460,PAYLOAD,2024-08-16 06:07:07,14.98327472,0.000249,70.0009,162.9294,263.5265,96.5611,0.00066333,7.83e-05,0.0,0 STARLINK-5460,1 55671U 23021AV  24229.25495092  .00007830  00000-0  66333-3 0  9999,2 55671  70.0009 162.9294 0002490 263.5265  96.5611 14.98327472 83836,6950.201,96.107,573.796,570.335,0.0
55671.0,STARLINK-5460,PAYLOAD,2024-08-16 18:56:12,14.98342897,0.0002996,70.0007,161.5811,268.8771,91.2045,-6.967e-05,-9.24e-06,0.0,0 STARLINK-5460,1 55671U 23021AV  24229.78903380 -.00000924  00000-0 -69670-4 0  9998,2 55671  70.0007 161.5811 0002996 268.8771  91.2045 14.98342897 83915,6950.153,96.106,574.1,569.936,0.0
55671.0,STARLINK-5460,PAYLOAD,2024-08-17 04:33:00,14.98341615,0.0002671,70.001,160.5719,259.7816,100.3042,-6.3422e-05,-8.5e-06,0.0,0 STARLINK-5460,1 55671U 23021AV  24230.18959082 -.00000850  00000-0 -63422-4 0  9991,2 55671  70.0010 160.5719 0002671 259.7816 100.3042 14.98341615 83673,6950.157,96.106,573.878,570.166,0.0
55671.0,STARLINK-5460,PAYLOAD,2024-08-17 22:10:29,14.98337316,0.0002656,70.0009,158.7194,256.7722,103.3141,-0.00012433,-1.576e-05,0.0,0 STARLINK-5460,1 55671U 23021AV  24230.92394966 -.00001576  00000-0 -12433-3 0  9998,2 55671  70.0009 158.7194 0002656 256.7722 103.3141 14.98337316 84085,6950.17,96.107,573.881,570.189,0.0
55671.0,STARLINK-5460,PAYLOAD,2024-08-18 04:35:01,14.98337911,0.000248,70.0016,158.047,252.4233,107.6655,-7.5499e-05,-9.94e-06,0.0,0 STARLINK-5460,1 55671U 23021AV  24231.19098651 -.00000994  00000-0 -75499-4 0  9995,2 55671  70.0016 158.0470 0002480 252.4233 107.6655 14.98337911 83827,6950.168,96.106,573.757,570.31,0.0
55671.0,STARLINK-5460,PAYLOAD,2024-08-18 22:12:29,14.9833121,0.0002523,70.0013,156.1956,247.0613,113.028,9.3132e-05,1.018e-05,0.0,0 STARLINK-5460,1 55671U 23021AV  24231.92534435  .00001018  00000-0  93132-4 0  9991,2 55671  70.0013 156.1956 0002523 247.0613 113.0280 14.98331210 84239,6950.189,96.107,573.808,570.301,0.0
